SKY MUSTER 2 (NBN1B)    
1 41794U 16060B   26094.77534965 -.00000244  00000+0  00000+0 0  9994
2 41794   0.0122 243.1348 0001553 135.4009 238.4807  1.00271807 34783
HIMAWARI-9              
1 41836U 16064A   26094.96665135 -.00000274  00000+0  00000+0 0  9993
2 41836   0.0480 108.4251 0001246 289.4240 284.1926  1.00271139 34473
SHIJIAN-17 (SJ-17)      
1 41838U 16065A   26094.81495648 -.00000180  00000+0  00000+0 0  9996
2 41838   5.5672  73.4719 0001543 340.2857  57.3515  0.99869998 34475
GOES 16                 
1 41866U 16071A   26094.86857429 -.00000090  00000+0  00000+0 0  9998
2 41866   0.1740  85.2963 0001845 246.4712  69.3990  1.00272259 34366
TIANLIAN 1-04           
1 41869U 16072A   26094.63913818  .00000032  00000+0  00000+0 0  9997
2 41869   0.6777  83.2511 0040013  93.8105  62.7584  1.00273660 34566
WGS F8 (USA 272)        
1 41879U 16075A   26094.79280682 -.00000203  00000+0  00000+0 0  9995
2 41879   0.0148 212.7530 0001066 324.4713  91.1013  1.00264775 34083
FENGYUN 4A              
1 41882U 16077A   26094.91378392 -.00000355  00000+0  00000+0 0  9999
2 41882   2.1375  81.0256 0007901 139.4162  65.3806  1.00278713 34192
ECHOSTAR 19             
1 41893U 16079A   26094.87004763 -.00000138  00000+0  00000+0 0  9995
2 41893   0.0159 161.6603 0001471 219.9651  27.6518  1.00271183 33964
JCSAT-110A (JCSAT-15)   
1 41903U 16082A   26094.92831731  .00000000  00000+0  00000+0 0  9997
2 41903   0.0167 200.5941 0000648 226.6817 210.2241  1.00269059 34027
STAR ONE D1             
1 41904U 16082B   26094.87264764 -.00000210  00000+0  00000+0 0  9992
2 41904   0.0200 116.5176 0002147 265.4733  41.3485  1.00272453 34032
TJS-2                   
1 41911U 17001A   26094.87670374 -.00000006  00000+0  00000+0 0  9993
2 41911   0.6441  86.2315 0001457 285.3963 203.7083  1.00273462 33982
SBIRS GEO-4 (USA 273)   
1 41937U 17004A   26094.89342661  .00000125  00000+0  00000+0 0  9992
2 41937   2.1066  41.1038 0002447 335.1294 159.4974  1.00272987 33867
HISPASAT 36W-1          
1 41942U 17006A   26094.45433707 -.00000245  00000+0  00000+0 0  9998
2 41942   0.0177  23.0847 0001031 347.8910 309.3607  1.00272228 33501
TELKOM 3S               
1 41944U 17007A   26094.91265726 -.00000362  00000+0  00000+0 0  9996
2 41944   0.0180 127.8417 0002443 254.5416 257.3974  1.00272850 33405
INTELSAT 32E (IS-32E)   
1 41945U 17007B   26094.38160065 -.00000269  00000+0  00000+0 0  9994
2 41945   0.0173 212.6232 0000343  65.6795   8.5797  1.00271245 33488
ECHOSTAR 23             
1 42070U 17014A   26094.65361159  .00000000  00000+0  00000+0 0  9991
2 42070   0.0171 201.6122 0001927 172.9899 303.7693  1.00270129 33180
WGS F9 (USA 275)        
1 42075U 17016A   26094.90461434 -.00000095  00000+0  00000+0 0  9998
2 42075   0.0093 210.1493 0000219 318.2459 338.4728  1.00274435 33160
