[{"OBJECT_NAME":"SKY MUSTER 2 (NBN1B)","OBJECT_ID":"2016-060B","EPOCH":"2026-04-04T18:36:30.209760","MEAN_MOTION":1.00271807,"ECCENTRICITY":0.0001553,"INCLINATION":0.0122,"RA_OF_ASC_NODE":243.1348,"ARG_OF_PERICENTER":135.4009,"MEAN_ANOMALY":238.4807,"EPHEMERIS_TYPE":0,"CLASSIFICATION_TYPE":"U","NORAD_CAT_ID":41794,"ELEMENT_SET_NO":999,"REV_AT_EPOCH":3478,"BSTAR":0,"MEAN_MOTION_DOT":-2.44e-6,"MEAN_MOTION_DDOT":0},{"OBJECT_NAME":"HIMAWARI-9","OBJECT_ID":"2016-064A","EPOCH":"2026-04-04T23:11:58.676640","MEAN_MOTION":1.00271139,"ECCENTRICITY":0.0001246,"INCLINATION":0.048,"RA_OF_ASC_NODE":108.4251,"ARG_OF_PERICENTER":289.424,"MEAN_ANOMALY":284.1926,"EPHEMERIS_TYPE":0,"CLASSIFICATION_TYPE":"U","NORAD_CAT_ID":41836,"ELEMENT_SET_NO":999,"REV_AT_EPOCH":3447,"BSTAR":0,"MEAN_MOTION_DOT":-2.74e-6,"MEAN_MOTION_DDOT":0},{"OBJECT_NAME":"SHIJIAN-17 (SJ-17)","OBJECT_ID":"2016-065A","EPOCH":"2026-04-04T19:33:32.239872","MEAN_MOTION":0.99869998,"ECCENTRICITY":0.0001543,"INCLINATION":5.5672,"RA_OF_ASC_NODE":73.4719,"ARG_OF_PERICENTER":340.2857,"MEAN_ANOMALY":57.3515,"EPHEMERIS_TYPE":0,"CLASSIFICATION_TYPE":"U","NORAD_CAT_ID":41838,"ELEMENT_SET_NO":999,"REV_AT_EPOCH":3447,"BSTAR":0,"MEAN_MOTION_DOT":-1.8e-6,"MEAN_MOTION_DDOT":0},{"OBJECT_NAME":"GOES 16","OBJECT_ID":"2016-071A","EPOCH":"2026-04-04T20:50:44.818656","MEAN_MOTION":1.00272259,"ECCENTRICITY":0.00018459,"INCLINATION":0.174,"RA_OF_ASC_NODE":85.2963,"ARG_OF_PERICENTER":246.4712,"MEAN_ANOMALY":69.399,"EPHEMERIS_TYPE":0,"CLASSIFICATION_TYPE":"U","NORAD_CAT_ID":41866,"ELEMENT_SET_NO":999,"REV_AT_EPOCH":3436,"BSTAR":0,"MEAN_MOTION_DOT":-9.0e-7,"MEAN_MOTION_DDOT":0},{"OBJECT_NAME":"TIANLIAN 1-04","OBJECT_ID":"2016-072A","EPOCH":"2026-04-04T15:20:21.538752","MEAN_MOTION":1.0027366,"ECCENTRICITY":0.00400139,"INCLINATION":0.6777,"RA_OF_ASC_NODE":83.2511,"ARG_OF_PERICENTER":93.8105,"MEAN_ANOMALY":62.7584,"EPHEMERIS_TYPE":0,"CLASSIFICATION_TYPE":"U","NORAD_CAT_ID":41869,"ELEMENT_SET_NO":999,"REV_AT_EPOCH":3456,"BSTAR":0,"MEAN_MOTION_DOT":3.2e-7,"MEAN_MOTION_DDOT":0},{"OBJECT_NAME":"WGS F8 (USA 272)","OBJECT_ID":"2016-075A","EPOCH":"2026-04-04T19:01:38.509248","MEAN_MOTION":1.00264775,"ECCENTRICITY":0.00010665,"INCLINATION":0.0148,"RA_OF_ASC_NODE":212.753,"ARG_OF_PERICENTER":324.4713,"MEAN_ANOMALY":91.1013,"EPHEMERIS_TYPE":0,"CLASSIFICATION_TYPE":"U","NORAD_CAT_ID":41879,"ELEMENT_SET_NO":999,"REV_AT_EPOCH":3408,"BSTAR":0,"MEAN_MOTION_DOT":-2.03e-6,"MEAN_MOTION_DDOT":0},{"OBJECT_NAME":"FENGYUN 4A","OBJECT_ID":"2016-077A","EPOCH":"2026-04-04T21:55:50.930688","MEAN_MOTION":1.00278713,"ECCENTRICITY":0.00079019,"INCLINATION":2.1375,"RA_OF_ASC_NODE":81.0256,"ARG_OF_PERICENTER":139.4162,"MEAN_ANOMALY":65.3806,"EPHEMERIS_TYPE":0,"CLASSIFICATION_TYPE":"U","NORAD_CAT_ID":41882,"ELEMENT_SET_NO":999,"REV_AT_EPOCH":3419,"BSTAR":0,"MEAN_MOTION_DOT":-3.55e-6,"MEAN_MOTION_DDOT":0},{"OBJECT_NAME":"ECHOSTAR 19","OBJECT_ID":"2016-079A","EPOCH":"2026-04-04T20:52:52.115232","MEAN_MOTION":1.00271183,"ECCENTRICITY":0.00014718,"INCLINATION":0.0159,"RA_OF_ASC_NODE":161.6603,"ARG_OF_PERICENTER":219.9651,"MEAN_ANOMALY":27.6518,"EPHEMERIS_TYPE":0,"CLASSIFICATION_TYPE":"U","NORAD_CAT_ID":41893,"ELEMENT_SET_NO":999,"REV_AT_EPOCH":3396,"BSTAR":0,"MEAN_MOTION_DOT":-1.38e-6,"MEAN_MOTION_DDOT":0},{"OBJECT_NAME":"JCSAT-110A (JCSAT-15)","OBJECT_ID":"2016-082A","EPOCH":"2026-04-04T22:16:46.615584","MEAN_MOTION":1.00269059,"ECCENTRICITY":6.484e-5,"INCLINATION":0.0167,"RA_OF_ASC_NODE":200.5941,"ARG_OF_PERICENTER":226.6817,"MEAN_ANOMALY":210.2241,"EPHEMERIS_TYPE":0,"CLASSIFICATION_TYPE":"U","NORAD_CAT_ID":41903,"ELEMENT_SET_NO":999,"REV_AT_EPOCH":3402,"BSTAR":0,"MEAN_MOTION_DOT":0,"MEAN_MOTION_DDOT":0},{"OBJECT_NAME":"STAR ONE D1","OBJECT_ID":"2016-082B","EPOCH":"2026-04-04T20:56:36.756096","MEAN_MOTION":1.00272453,"ECCENTRICITY":0.0002147,"INCLINATION":0.02,"RA_OF_ASC_NODE":116.5176,"ARG_OF_PERICENTER":265.4733,"MEAN_ANOMALY":41.3485,"EPHEMERIS_TYPE":0,"CLASSIFICATION_TYPE":"U","NORAD_CAT_ID":41904,"ELEMENT_SET_NO":999,"REV_AT_EPOCH":3403,"BSTAR":0,"MEAN_MOTION_DOT":-2.1e-6,"MEAN_MOTION_DDOT":0},{"OBJECT_NAME":"TJS-2","OBJECT_ID":"2017-001A","EPOCH":"2026-04-04T21:02:27.203136","MEAN_MOTION":1.00273462,"ECCENTRICITY":0.00014579,"INCLINATION":0.6441,"RA_OF_ASC_NODE":86.2315,"ARG_OF_PERICENTER":285.3963,"MEAN_ANOMALY":203.7083,"EPHEMERIS_TYPE":0,"CLASSIFICATION_TYPE":"U","NORAD_CAT_ID":41911,"ELEMENT_SET_NO":999,"REV_AT_EPOCH":3398,"BSTAR":0,"MEAN_MOTION_DOT":-6.0e-8,"MEAN_MOTION_DDOT":0},{"OBJECT_NAME":"SBIRS GEO-4 (USA 273)","OBJECT_ID":"2017-004A","EPOCH":"2026-04-04T21:26:32.059104","MEAN_MOTION":1.00272987,"ECCENTRICITY":0.00024473,"INCLINATION":2.1066,"RA_OF_ASC_NODE":41.1038,"ARG_OF_PERICENTER":335.1294,"MEAN_ANOMALY":159.4974,"EPHEMERIS_TYPE":0,"CLASSIFICATION_TYPE":"U","NORAD_CAT_ID":41937,"ELEMENT_SET_NO":999,"REV_AT_EPOCH":3386,"BSTAR":0,"MEAN_MOTION_DOT":1.25e-6,"MEAN_MOTION_DDOT":0},{"OBJECT_NAME":"HISPASAT 36W-1","OBJECT_ID":"2017-006A","EPOCH":"2026-04-04T10:54:14.722848","MEAN_MOTION":1.00272228,"ECCENTRICITY":0.00010314,"INCLINATION":0.0177,"RA_OF_ASC_NODE":23.0847,"ARG_OF_PERICENTER":347.891,"MEAN_ANOMALY":309.3607,"EPHEMERIS_TYPE":0,"CLASSIFICATION_TYPE":"U","NORAD_CAT_ID":41942,"ELEMENT_SET_NO":999,"REV_AT_EPOCH":3350,"BSTAR":0,"MEAN_MOTION_DOT":-2.45e-6,"MEAN_MOTION_DDOT":0},{"OBJECT_NAME":"TELKOM 3S","OBJECT_ID":"2017-007A","EPOCH":"2026-04-04T21:54:13.587264","MEAN_MOTION":1.0027285,"ECCENTRICITY":0.0002443,"INCLINATION":0.018,"RA_OF_ASC_NODE":127.8417,"ARG_OF_PERICENTER":254.5416,"MEAN_ANOMALY":257.3974,"EPHEMERIS_TYPE":0,"CLASSIFICATION_TYPE":"U","NORAD_CAT_ID":41944,"ELEMENT_SET_NO":999,"REV_AT_EPOCH":3340,"BSTAR":0,"MEAN_MOTION_DOT":-3.62e-6,"MEAN_MOTION_DDOT":0},{"OBJECT_NAME":"INTELSAT 32E (IS-32E)","OBJECT_ID":"2017-007B","EPOCH":"2026-04-04T09:09:30.296160","MEAN_MOTION":1.00271245,"ECCENTRICITY":3.435e-5,"INCLINATION":0.0173,"RA_OF_ASC_NODE":212.6232,"ARG_OF_PERICENTER":65.6795,"MEAN_ANOMALY":8.5797,"EPHEMERIS_TYPE":0,"CLASSIFICATION_TYPE":"U","NORAD_CAT_ID":41945,"ELEMENT_SET_NO":999,"REV_AT_EPOCH":3348,"BSTAR":0,"MEAN_MOTION_DOT":-2.69e-6,"MEAN_MOTION_DDOT":0},{"OBJECT_NAME":"ECHOSTAR 23","OBJECT_ID":"2017-014A","EPOCH":"2026-04-04T15:41:12.041376","MEAN_MOTION":1.00270129,"ECCENTRICITY":0.00019274,"INCLINATION":0.0171,"RA_OF_ASC_NODE":201.6122,"ARG_OF_PERICENTER":172.9899,"MEAN_ANOMALY":303.7693,"EPHEMERIS_TYPE":0,"CLASSIFICATION_TYPE":"U","NORAD_CAT_ID":42070,"ELEMENT_SET_NO":999,"REV_AT_EPOCH":3318,"BSTAR":0,"MEAN_MOTION_DOT":0,"MEAN_MOTION_DDOT":0},{"OBJECT_NAME":"WGS F9 (USA 275)","OBJECT_ID":"2017-016A","EPOCH":"2026-04-04T21:42:38.678976","MEAN_MOTION":1.00274435,"ECCENTRICITY":2.195e-5,"INCLINATION":0.0093,"RA_OF_ASC_NODE":210.1493,"ARG_OF_PERICENTER":318.2459,"MEAN_ANOMALY":338.4728,"EPHEMERIS_TYPE":0,"CLASSIFICATION_TYPE":"U","NORAD_CAT_ID":42075,"ELEMENT_SET_NO":999,"REV_AT_EPOCH":3316,"BSTAR":0,"MEAN_MOTION_DOT":-9.5e-7,"MEAN_MOTION_DDOT":0}]
